1 43013U 17073A   26017.58553584  .00000066  00000+0  52288-4 0  9998
2 43013  98.7639 318.4977 0001406  35.6039 324.5231 14.19536575423107
